NORAD_CAT_ID,OBJECT_NAME,OBJECT_TYPE,EPOCH,MEAN_MOTION,ECCENTRICITY,INCLINATION,RA_OF_ASC_NODE,ARG_OF_PERICENTER,MEAN_ANOMALY,BSTAR,MEAN_MOTION_DOT,MEAN_MOTION_DDOT,TLE_LINE0,TLE_LINE1,TLE_LINE2,SEMIMAJOR_AXIS,PERIOD,APOGEE,PERIGEE,DECAYED
53722.0,STARLINK-4700,PAYLOAD,2023-03-19 17:48:52,15.08830605,0.0001216,53.2163,89.04,105.4973,254.6154,-0.00011941,-2.187e-05,0.0,0 STARLINK-4700,1 53722U 22107Y   23078.74227862 -.00002187  00000-0 -11941-3 0  9998,2 53722  53.2163  89.0400 0001216 105.4973 254.6154 15.08830605 30018,6917.909,95.438,540.615,538.933,0.0
53722.0,STARLINK-4700,PAYLOAD,2023-03-20 09:42:44,15.08846359,0.0001213,53.2162,86.0667,97.474,262.639,0.00029064,4.341e-05,0.0,0 STARLINK-4700,1 53722U 22107Y   23079.40467845  .00004341  00000-0  29064-3 0  9996,2 53722  53.2162  86.0667 0001213  97.4740 262.6390 15.08846359 30113,6917.861,95.437,540.565,538.887,0.0
53722.0,STARLINK-4700,PAYLOAD,2023-03-20 17:39:40,15.08836121,0.0001121,53.2175,84.5804,89.2043,270.9077,0.00034979,5.283e-05,0.0,0 STARLINK-4700,1 53722U 22107Y   23079.73588419  .00005283  00000-0  34979-3 0  9990,2 53722  53.2175  84.5804 0001121  89.2043 270.9077 15.08836121 30161,6917.892,95.438,540.533,538.982,0.0
53722.0,STARLINK-4700,PAYLOAD,2023-03-21 09:33:31,15.08846331,0.0001263,53.2161,81.6053,91.0752,269.0385,0.00036449,5.519e-05,0.0,0 STARLINK-4700,1 53722U 22107Y   23080.39828374  .00005519  00000-0  36449-3 0  9997,2 53722  53.2161  81.6053 0001263  91.0752 269.0385 15.08846331 30711,6917.861,95.437,540.6,538.852,0.0
53722.0,STARLINK-4700,PAYLOAD,2023-03-21 17:30:27,15.08840928,0.0001315,53.216,80.1186,88.2161,271.8982,0.00023435,3.444e-05,0.0,0 STARLINK-4700,1 53722U 22107Y   23080.72948628  .00003444  00000-0  23435-3 0  9995,2 53722  53.2160  80.1186 0001315  88.2161 271.8982 15.08840928 30766,6917.878,95.437,540.652,538.833,0.0
53722.0,STARLINK-4700,PAYLOAD,2023-03-22 06:13:32,15.08845939,0.0001188,53.2166,77.7399,94.7442,265.3686,0.00026459,3.926e-05,0.0,0 STARLINK-4700,1 53722U 22107Y   23081.25940439  .00003926  00000-0  26459-3 0  9990,2 53722  53.2166  77.7399 0001188  94.7442 265.3686 15.08845939 30397,6917.862,95.437,540.549,538.905,0.0
53722.0,STARLINK-4700,PAYLOAD,2023-03-22 09:24:18,15.08850733,0.000124,53.2165,77.1457,90.2128,269.9007,0.00032288,4.856e-05,0.0,0 STARLINK-4700,1 53722U 22107Y   23081.39188234  .00004856  00000-0  32288-3 0  9992,2 53722  53.2165  77.1457 0001240  90.2128 269.9007 15.08850733 30863,6917.848,95.437,540.57,538.855,0.0
53722.0,STARLINK-4700,PAYLOAD,2023-03-23 04:28:56,15.08838167,0.00013,53.218,73.5773,92.5652,267.5488,8.3217e-05,1.037e-05,0.0,0 STARLINK-4700,1 53722U 22107Y   23082.18676775  .00001037  00000-0  83217-4 0  9999,2 53722  53.2180  73.5773 0001300  92.5652 267.5488 15.08838167 30533,6917.886,95.438,540.65,538.852,0.0
53722.0,STARLINK-4700,PAYLOAD,2023-03-23 06:04:19,15.08843398,0.0001248,53.2172,73.2792,85.9892,274.1243,9.6223e-05,1.244e-05,0.0,0 STARLINK-4700,1 53722U 22107Y   23082.25300514  .00001244  00000-0  96223-4 0  9993,2 53722  53.2172  73.2792 0001248  85.9892 274.1243 15.08843398 30990,6917.87,95.437,540.598,538.872,0.0
53722.0,STARLINK-4700,PAYLOAD,2023-03-24 04:19:43,15.08858679,0.0001389,53.2177,69.1152,96.7597,263.3553,0.00037116,5.627e-05,0.0,0 STARLINK-4700,1 53722U 22107Y   23083.18035968  .00005627  00000-0  37116-3 0  9998,2 53722  53.2177  69.1152 0001389  96.7597 263.3553 15.08858679 30685,6917.823,95.436,540.649,538.727,0.0
53722.0,STARLINK-4700,PAYLOAD,2023-03-24 05:55:05,15.08876518,0.0001116,53.2167,68.8191,95.3254,264.7866,0.00066659,0.00010347,0.0,0 STARLINK-4700,1 53722U 22107Y   23083.24659319  .00010347  00000-0  66659-3 0  9996,2 53722  53.2167  68.8191 0001116  95.3254 264.7866 15.08876518 30691,6917.769,95.435,540.406,538.862,0.0
53722.0,STARLINK-4700,PAYLOAD,2023-03-24 10:41:14,15.08876191,0.0001073,53.2176,67.9266,93.3661,266.7453,0.0007012,0.000109,0.0,0 STARLINK-4700,1 53722U 22107Y   23083.44530859  .00010900  00000-0  70120-3 0  9998,2 53722  53.2176  67.9266 0001073  93.3661 266.7453 15.08876191 31171,6917.77,95.435,540.377,538.892,0.0
53722.0,STARLINK-4700,PAYLOAD,2023-03-24 15:27:26,15.08817342,0.0001959,53.2182,67.035,84.2736,275.8479,-0.00042425,-7.03e-05,0.0,0 STARLINK-4700,1 53722U 22107Y   23083.64405333 -.00007030  00000-0 -42425-3 0  9997,2 53722  53.2182  67.0350 0001959  84.2736 275.8479 15.08817342 30753,6917.95,95.439,541.17,538.459,0.0
53722.0,STARLINK-4700,PAYLOAD,2023-03-25 04:10:31,15.08831422,0.0001314,53.2203,64.6597,90.558,269.5563,-0.00010124,-1.898e-05,0.0,0 STARLINK-4700,1 53722U 22107Y   23084.17397039 -.00001898  00000-0 -10124-3 0  9996,2 53722  53.2203  64.6597 0001314  90.5580 269.5563 15.08831422 30833,6917.907,95.438,540.681,538.863,0.0
53722.0,STARLINK-4700,PAYLOAD,2023-03-25 10:32:03,15.08841017,0.000106,53.2178,63.4674,91.6361,268.4753,0.00019212,2.771e-05,0.0,0 STARLINK-4700,1 53722U 22107Y   23084.43892718  .00002771  00000-0  19212-3 0  9995,2 53722  53.2178  63.4674 0001060  91.6361 268.4753 15.08841017 30878,6917.877,95.437,540.476,539.009,0.0
53722.0,STARLINK-4700,PAYLOAD,2023-03-25 15:18:12,15.08829851,5.56e-05,53.2183,62.5761,109.2479,250.8573,-0.00010642,-1.98e-05,0.0,0 STARLINK-4700,1 53722U 22107Y   23084.63764952 -.00001980  00000-0 -10642-3 0  9996,2 53722  53.2183  62.5761 0000556 109.2479 250.8573 15.08829851 30907,6917.911,95.438,540.161,539.392,0.0
53722.0,STARLINK-4700,PAYLOAD,2023-03-26 05:36:40,15.0884702,6.64e-05,53.2175,59.8994,102.0128,258.0938,0.00038186,5.796e-05,0.0,0 STARLINK-4700,1 53722U 22107Y   23085.23380731  .00005796  00000-0  38186-3 0  9992,2 53722  53.2175  59.8994 0000664 102.0128 258.0938 15.08847020 30999,6917.859,95.437,540.183,539.265,0.0
53722.0,STARLINK-4700,PAYLOAD,2023-03-26 08:47:27,15.08864236,8.53e-05,53.2178,59.304,88.1281,271.9809,0.0012025,0.00018914,0.0,0 STARLINK-4700,1 53722U 22107Y   23085.36628691  .00018914  00000-0  12025-2 0  9995,2 53722  53.2178  59.3040 0000853  88.1281 271.9809 15.08864236 31016,6917.806,95.436,540.261,539.081,0.0
53722.0,STARLINK-4700,PAYLOAD,2023-03-27 03:52:05,15.08854031,9.82e-05,53.2176,55.7371,118.3854,241.7237,0.0013817,0.00021779,0.0,0 STARLINK-4700,1 53722U 22107Y   23086.16116939  .00021779  00000-0  13817-2 0  9994,2 53722  53.2176  55.7371 0000982 118.3854 241.7237 15.08854031 31131,6917.838,95.437,540.382,539.023,0.0
53722.0,STARLINK-4700,PAYLOAD,2023-03-27 10:13:37,15.08862738,9.53e-05,53.2173,54.5472,98.3424,261.7677,0.001438,0.00022686,0.0,0 STARLINK-4700,1 53722U 22107Y   23086.42612710  .00022686  00000-0  14380-2 0  9995,2 53722  53.2173  54.5472 0000953  98.3424 261.7677 15.08862738 31622,6917.811,95.436,540.335,539.017,0.0
53722.0,STARLINK-4700,PAYLOAD,2023-03-27 21:21:19,15.08833722,0.0001217,53.2174,52.4654,101.057,259.0559,0.0017992,0.00028457,0.0,0 STARLINK-4700,1 53722U 22107Y   23086.88981315  .00028457  00000-0  17992-2 0  9999,2 53722  53.2174  52.4654 0001217 101.0570 259.0559 15.08833722 31248,6917.9,95.438,540.606,538.923,0.0
53722.0,STARLINK-4700,PAYLOAD,2023-03-28 05:18:15,15.08858039,0.0001049,53.2175,50.9789,96.548,263.5631,0.0019192,0.00030403,0.0,0 STARLINK-4700,1 53722U 22107Y   23087.22101040  .00030403  00000-0  19192-2 0  9995,2 53722  53.2175  50.9789 0001049  96.5480 263.5631 15.08858039 31746,6917.825,95.436,540.416,538.965,0.0
53722.0,STARLINK-4700,PAYLOAD,2023-03-29 06:44:25,15.08854773,0.0001145,53.2174,46.2201,84.7142,275.398,0.0010883,0.00017082,0.0,0 STARLINK-4700,1 53722U 22107Y   23088.28085451  .00017082  00000-0  10883-2 0  9995,2 53722  53.2174  46.2201 0001145  84.7142 275.3980 15.08854773 31450,6917.835,95.437,540.492,538.908,0.0
53722.0,STARLINK-4700,PAYLOAD,2023-03-30 03:24:26,15.08858269,0.0001203,53.2183,42.3551,87.2415,272.8715,0.0015674,0.00024758,0.0,0 STARLINK-4700,1 53722U 22107Y   23089.14197546  .00024758  00000-0  15674-2 0  9991,2 53722  53.2183  42.3551 0001203  87.2415 272.8715 15.08858269 31587,6917.825,95.436,540.522,538.857,0.0
53722.0,STARLINK-4700,PAYLOAD,2023-03-31 03:15:13,15.08864701,0.0001102,53.217,37.8953,84.8126,275.2992,0.0014594,0.0002303,0.0,0 STARLINK-4700,1 53722U 22107Y   23090.13557194  .00023030  00000-0  14594-2 0  9993,2 53722  53.2170  37.8953 0001102  84.8126 275.2992 15.08864701 31737,6917.805,95.436,540.432,538.908,0.0
53722.0,STARLINK-4700,PAYLOAD,2023-03-31 20:44:28,15.08847706,0.0001175,53.2182,34.6249,80.2382,279.8743,0.00099693,0.00015617,0.0,0 STARLINK-4700,1 53722U 22107Y   23090.86421381  .00015617  00000-0  99693-3 0  9997,2 53722  53.2182  34.6249 0001175  80.2382 279.8743 15.08847706 31849,6917.857,95.437,540.535,538.909,0.0
53722.0,STARLINK-4700,PAYLOAD,2023-04-01 03:06:00,15.08846532,0.000114,53.2184,33.4377,80.7319,279.3802,0.00092382,0.00014448,0.0,0 STARLINK-4700,1 53722U 22107Y   23091.12917535  .00014448  00000-0  92382-3 0  9997,2 53722  53.2184  33.4377 0001140  80.7319 279.3802 15.08846532 31888,6917.86,95.437,540.514,538.937,0.0
53722.0,STARLINK-4700,PAYLOAD,2023-04-02 06:07:34,15.08851405,0.00011,53.2177,28.3801,90.0281,270.0837,0.00050834,7.814e-05,0.0,0 STARLINK-4700,1 53722U 22107Y   23092.25525582  .00007814  00000-0  50834-3 0  9994,2 53722  53.2177  28.3801 0001100  90.0281 270.0837 15.08851405 32054,6917.846,95.437,540.471,538.95,0.0
53722.0,STARLINK-4700,PAYLOAD,2023-04-03 04:22:57,15.08851364,0.0001219,53.2181,24.2184,81.421,278.6921,0.00025788,3.82e-05,0.0,0 STARLINK-4700,1 53722U 22107Y   23093.18261298  .00003820  00000-0  25788-3 0  9991,2 53722  53.2181  24.2184 0001219  81.4210 278.6921 15.08851364 32192,6917.846,95.437,540.554,538.867,0.0
53722.0,STARLINK-4700,PAYLOAD,2023-04-04 02:38:21,15.08849581,0.0001308,53.2182,20.0546,91.8165,268.2977,0.00016532,2.345e-05,0.0,0 STARLINK-4700,1 53722U 22107Y   23094.10997476  .00002345  00000-0  16532-3 0  9996,2 53722  53.2182  20.0546 0001308  91.8165 268.2977 15.08849581 32332,6917.851,95.437,540.621,538.811,0.0
